LANDSAT 5               
1 14780U 84021A   09160.02139643  .00000025  00000-0  15727-4 0  7406
2 14780  98.2447 227.6475 0003591 125.0080 235.1456 14.57090874344195
SPOT 2                  
1 20436U 90005A   09160.17561194  .00000210  00000-0  11906-3 0  4155
2 20436  98.6640 230.4130 0000951 113.6180 325.9040 14.20057576  4563
ERS-2                   
1 23560U 95021A   09160.16157050  .00000006  00000-0  18399-4 0  1604
2 23560  98.5555 235.4650 0001026 100.0606 260.0711 14.32246001739067
RADARSAT-1              
1 23710U 95059A   09160.17593874  .00000095  00000-0  53752-4 0  2882
2 23710  98.5769 167.0827 0001099  81.0969 347.7731 14.29983646709664
TOMS EP                 
1 23940U 96037A   09159.21332340  .00000068  00000-0  27279-4 0   812
2 23940  98.0327  31.8702 0030030  25.0419 335.2219 14.52242558688125
MIDORI (ADEOS)          
1 24277U 96046A   09160.03760697 -.00000020  00000-0  84227-5 0   791
2 24277  98.3626 124.9756 0000772 358.4244   1.6935 14.28597220667764
ORBVIEW 2 (SEASTAR)     
1 24883U 97037A   09159.23309522 -.00000048  00000-0 -31302-7 0  8259
2 24883  98.3410 283.0714 0000775 203.3285 156.7851 14.59990798631137
IRS-1D                  
1 24971U 97057A   09160.11846456  .00000052  00000-0  33584-4 0  3642
2 24971  98.2371 196.6242 0053625 319.8693  39.8535 14.32971996611670
TRMM                    
1 25063U 97074A   09159.96554476  .00003233  00000-0  45423-4 0   829
2 25063  34.9667  32.8746 0001103 290.4117  69.6454 15.56160600658814
SPOT 4                  
1 25260U 98017A   09160.10036007  .00000018  00000-0  28832-4 0  1755
2 25260  98.6989 233.0645 0000504  96.7100  16.2598 14.20042872581185
FASAT B                 
1 25395U 98043B   09159.20191856  .00000023  00000-0  27524-4 0  4695
2 25395  98.3332 190.7660 0001948 220.3604 139.7435 14.24349100567167
TECHSAT 1B (GO-32)      
1 25397U 98043D   09159.49523419 -.00000034  00000-0  27945-5 0  9126
2 25397  98.3252 182.3008 0000274 316.1263  43.9898 14.23159575566891
LANDSAT 7               
1 25682U 99020A   09160.12594555  .00000091  00000-0  30231-4 0  8289
2 25682  98.2091 228.2617 0000663  98.8278 261.3006 14.57113453539907
KITSAT 3                
1 25756U 99029A   09159.55403564  .00000004  00000-0  12822-4 0  9274
2 25756  98.6636 352.0898 0013453 196.8911 163.1837 14.52536675531902
DLR-TUBSAT              
1 25757U 99029B   09160.14354672 -.00000029  00000-0  48959-5 0  8433
2 25757  98.6834 343.3678 0013830 221.0484 138.9661 14.50841523531541
IRS-P4 (OCEANSAT 1)     
1 25758U 99029C   09159.85761612  .00000109  00000-0  38588-4 0  1679
2 25758  98.2754 254.9688 0000871  32.9829 327.1423 14.50862746531650
QUIKSCAT                
1 25789U 99034A   09160.10113407 -.00000005  00000-0  15935-4 0  4470
2 25789  98.6340 349.3538 0000680  38.3566 321.7661 14.26787224519300
IKONOS 2                
1 25919U 99051A   09160.14286887  .00000010  00000-0  10839-4 0  9525
2 25919  98.1040 235.5444 0001731  99.7577 260.3832 14.64447476518884
CBERS 1 (ZY 1A)         
1 25940U 99057A   09160.11987674  .00000053  00000-0  33158-4 0  8620
2 25940  98.1548 165.9397 0006278 103.0349 257.1534 14.34452383505655
TERRA                   
1 25994U 99068A   09160.14516846  .00000086  00000-0  29181-4 0  7551
2 25994  98.2026 235.2630 0001617  79.4475 280.6924 14.57123921503981
ARIRANG 1 (KOMPSAT-1)   
1 26032U 99070A   09160.10254716  .00000116  00000-0  29842-4 0  9100
2 26032  97.9245  41.0582 0003710 259.5597 100.5192 14.65607000506305
EO-1                    
1 26619U 00075A   09160.15857292  .00000941  00000-0  19684-3 0  1268
2 26619  98.1451 227.6569 0009607 339.8354  20.2499 14.62023682455091
SAC C                   
1 26620U 00075B   09159.12229843 -.00000093  00000-0 -11431-4 0  7360
2 26620  97.9099 192.3367 0001484  71.6606 288.4765 14.56569810454351
EROS A1                 
1 26631U 00079A   09160.15812478  .00001178  00000-0  61255-4 0  8805
2 26631  97.4893 225.5308 0009706  23.6599  59.1523 15.18001243473308
QUICKBIRD 2             
1 26953U 01047A   09160.14736706  .00002113  00000-0  55168-4 0  1412
2 26953  97.1487 236.9565 0001209  82.3821   5.1215 15.39892954429379
TES                     
1 26957U 01049A   09160.15859684 -.00000404  00000-0 -26927-4 0  1560
2 26957  97.5808 238.1798 0021631 211.8627 148.1301 15.00940303418002
JASON 1                 
1 26997U 01055A   09159.93969553 -.00000038  00000-0  10000-3 0   376
2 26997  66.0422  87.6157 0007772 265.7602  94.2506 12.80929107350980
METEOR-3M               
1 27001U 01056A   09159.54891440 -.00000028  00000-0  16477-4 0  4255
2 27001  99.2633  15.4321 0014403  60.9310 299.3276 13.68712070374334
BADR-B                  
1 27003U 01056C   09158.75476586  .00000116  00000-0  17993-3 0  3102
2 27003  99.2505  20.9404 0021018  65.3811 294.9517 13.70100013374668
MAROC-TUBSAT            
1 27004U 01056D   09159.75616731  .00000023  00000-0  74373-4 0  3149
2 27004  99.2485  21.2485 0020524  63.9939 296.3310 13.70027486374776
ENVISAT                 
1 27386U 02009A   09160.13988130 -.00000008  00000-0  13290-4 0   311
2 27386  98.5479 227.6389 0001094  78.6818 281.4500 14.32248003380344
SPOT 5                  
1 27421U 02021A   09160.12989148  .00000022  00000-0  30992-4 0  1004
2 27421  98.7750 233.1257 0001267  77.3730 282.7589 14.20006610368020
AQUA                    
1 27424U 02022A   09156.87113892 -.00000055  00000-0 -21491-5 0  3218
2 27424  98.1777  99.3808 0001189 106.2373 253.8978 14.57125995377117
HAIYANG-1A              
1 27430U 02024A   09159.24879850  .00000018  00000-0  23810-4 0   797
2 27430  98.4824 225.5959 0009756 101.3703 258.8575 14.29703896368794
ALSAT 1                 
1 27559U 02054A   09160.02340509  .00000008  00000-0  96077-5 0  4221
2 27559  97.9444  35.1136 0024108  25.7791 334.4613 14.69319682348527
MIDORI II (ADEOS-II)    
1 27597U 02056A   09160.13942773  .00000085  00000-0  53369-4 0  8740
2 27597  98.4744 224.8994 0000887  18.2650 341.8575 14.26167296337641
ICESAT                  
1 27642U 03002A   09159.58426676  .00000057  00000-0  70440-5 0  2393
2 27642  94.0004 288.4255 0001323  42.5209 317.6120 14.90875056348386
ORBVIEW 3               
1 27838U 03030A   09160.13726491  .00002045  00000-0  52094-4 0  6805
2 27838  97.0588 219.1854 0002429  90.5932 325.5118 15.40667424334163
IRS-P6 (RESOURCESAT-1)  
1 28051U 03046A   09160.15914333  .00000012  00000-0  25562-4 0  6640
2 28051  98.7144 236.1171 0002517 141.9986 218.1370 14.21629883292970
CBERS 2 (ZY 1B)         
1 28057U 03049A   09160.12714906  .00000012  00000-0  18922-4 0  4516
2 28057  98.2833 212.5851 0002206  44.7526 315.3845 14.34908263295240
TANSUO 1                
1 28220U 04012A   09159.51660917  .00000053  00000-0  11188-4 0  2208
2 28220  97.4939 197.4352 0010549 219.8884 140.1560 14.88655475279128
FORMOSAT-2 (ROCSAT 2)   
1 28254U 04018A   09160.12970855  .00000107  00000-0  10000-3 0  7403
2 28254  98.8589 220.1698 0000225  60.3138  22.3300 14.00824480258396
AURA                    
1 28376U 04026A   09159.55471034 -.00000022  00000-0  51236-5 0  5196
2 28376  98.1757 104.1626 0001349  98.9735 261.1611 14.57122851260555
PARASOL                 
1 28498U 04049G   09159.20758059  .00000018  00000-0  14104-4 0  4334
2 28498  98.2725 102.1979 0001342  76.5110 283.6242 14.57132845237778
IRS-P5 (CARTOSAT-1)     
1 28649U 05017A   09160.11297842  .00000072  00000-0  15372-4 0  6350
2 28649  97.8679 233.2587 0002050  81.0266 279.1185 14.82657718221666
TOPSAT                  
1 28891U 05043B   09160.14949819  .00000023  00000-0  14404-4 0   657
2 28891  98.0545  50.2422 0017563  17.8281 342.3533 14.59763664192696
SINAH 1                 
1 28893U 05043D   09160.12662642 -.00000010  00000-0  73674-5 0    04
2 28893  98.0565  51.1236 0016108  16.7836 343.3901 14.60075003192731
ALOS (DAICHI)           
1 28931U 06002A   09160.12378276  .00000090  00000-0  28606-4 0  7974
2 28931  98.1915 235.3506 0001266  89.8744 270.2606 14.59555465179725
EROS B                  
1 29079U 06014A   09160.12640204  .00001181  00000-0  54595-4 0  5307
2 29079  97.4429 281.2634 0008721  67.9574  56.6884 15.22102415173298
RSS-1 (YAOGAN 1)        
1 29092U 06015A   09160.11371753 -.00000454  00000-0 -52939-4 0  4978
2 29092  97.8378 154.4678 0001450 102.9845 257.1520 14.80315045168570
RESURS-DK 1             
1 29228U 06021A   09160.11983290  .00000747  00000-0  19622-4 0  3650
2 29228  69.9349  33.5232 0162702 185.9689 173.9564 15.32305720167093
ARIRANG 2 (KOMPSAT-2)   
1 29268U 06031A   09160.09873519  .00000037  00000-0  16602-4 0  1996
2 29268  98.0429  52.9482 0017861 168.1301 192.0329 14.61710429152902
LAPAN-TUBSAT            
1 29709U 07001A   09160.15713323 -.00000005  00000-0  61102-5 0  6736
2 29709  97.8140 215.9803 0012733 315.5252  44.4945 14.80253724130296
CARTOSAT-2 (IRS-P7)     
1 29710U 07001B   09160.13171327  .00000022  00000-0  99035-5 0  6765
2 29710  97.8831 220.8366 0002493  65.9951 294.1542 14.78659087130193
HAIYANG-1B              
1 31113U 07010A   09160.16970117 -.00000000  00000-0  16777-4 0  4151
2 31113  98.5458 233.9306 0014900  89.1256 271.1649 14.29424040112791
COSMO-SKYMED 1          
1 31598U 07023A   09160.09500030  .00000028  00000-0  10021-4 0  2420
2 31598  97.8659 349.0100 0001413  77.5204 282.6167 14.82169816108426
TERRASAR-X              
1 31698U 07026A   09160.16028567 -.00000266  00000-0 -94959-5 0  2117
2 31698  97.4445 167.6831 0001500  80.6471 343.0074 15.19149417110056
WORLDVIEW-1 (WV-1)      
1 32060U 07041A   09160.14318604  .00000560  00000-0  25687-4 0  9247
2 32060  97.4313 237.6657 0001641 108.7170 337.5981 15.24491570 95864
CBERS 2B                
1 32062U 07042A   09160.14373212  .00000030  00000-0  23981-4 0  9265
2 32062  98.4852 236.3012 0027314  16.2623 343.9446 14.38428268 90250
